{"type": "FeatureCollection", "features": [ {"type": "Feature", "properties": {"norad_id": 31091, "name": "FENGYUN 1C DEB", "group": "fengyun-1c-debris", "lat": -59.20006270659834, "lon": -8.271669576138478, "alt_km": 848.5719114596504, "timestamp": "2025-12-25T16:53:14.943982+00:00", "meta": {"OBJECT_NAME": "FENGYUN 1C DEB", "OBJECT_ID": "1999-025BGM", "EPOCH": "2025-12-22T16:28:13.100736", "MEAN_MOTION": 13.54158753, "ECCENTRICITY": 0.02902586, "INCLINATION": 99.2259, "RA_OF_ASC_NODE": 333.0878, "ARG_OF_PERICENTER": 303.7803, "MEAN_ANOMALY": 53.5998, "EPHEMERIS_TYPE": 0, "CLASSIFICATION_TYPE": "U", "NORAD_CAT_ID": 31091, "ELEMENT_SET_NO": 999, "REV_AT_EPOCH": 61774, "BSTAR": 0.00060623551, "MEAN_MOTION_DOT": 4.96e-06, "MEAN_MOTION_DDOT": 0}, "tle": {"line1": "1 31091U 99025BGM 25356.68626274  .00000496  00000+0  60624-3 0  9990", "line2": "2 31091  99.2259 333.0878 0290258 303.7803  53.5998 13.54158753617740"}}, "geometry": {"type": "Point", "coordinates": [-8.271669576138478, -59.20006270659834]}}, {"type": "Feature", "properties": {"norad_id": 31092, "name": "FENGYUN 1C DEB", "group": "fengyun-1c-debris", "lat": -52.600089123253184, "lon": 128.14637686873098, "alt_km": 1317.7420762689953, "timestamp": "2025-12-25T16:53:14.943992+00:00", "meta": {"OBJECT_NAME": "FENGYUN 1C DEB", "OBJECT_ID": "1999-025BGN", "EPOCH": "2025-12-24T01:55:59.996928", "MEAN_MOTION": 13.46554727, "ECCENTRICITY": 0.0327048, "INCLINATION": 99.718, "RA_OF_ASC_NODE": 113.6183, "ARG_OF_PERICENTER": 108.8069, "MEAN_ANOMALY": 254.8834, "EPHEMERIS_TYPE": 0, "CLASSIFICATION_TYPE": "U", "NORAD_CAT_ID": 31092, "ELEMENT_SET_NO": 999, "REV_AT_EPOCH": 92034, "BSTAR": 0.0011496319, "MEAN_MOTION_DOT": 9.18e-06, "MEAN_MOTION_DDOT": 0}, "tle": {"line1": "1 31092U 99025BGN 25358.08055552  .00000918  00000+0  11496-2 0  9993", "line2": "2 31092  99.7180 113.6183 0327048 108.8069 254.8834 13.46554727920346"}}, "geometry": {"type": "Point", "coordinates": [128.14637686873098, -52.600089123253184]}}, {"type": "Feature", "properties": {"norad_id": 31093, "name": "FENGYUN 1C DEB", "group": "fengyun-1c-debris", "lat": -72.10663827637188, "lon": -10.385867481346164, "alt_km": 904.5140445172638, "timestamp": "2025-12-25T16:53:14.944003+00:00", "meta": {"OBJECT_NAME": "FENGYUN 1C DEB", "OBJECT_ID": "1999-025BGP", "EPOCH": "2025-12-20T19:08:05.890560", "MEAN_MOTION": 13.80639482, "ECCENTRICITY": 0.02083586, "INCLINATION": 98.5945, "RA_OF_ASC_NODE": 193.0786, "ARG_OF_PERICENTER": 201.2976, "MEAN_ANOMALY": 157.9411, "EPHEMERIS_TYPE": 0, "CLASSIFICATION_TYPE": "U", "NORAD_CAT_ID": 31093, "ELEMENT_SET_NO": 999, "REV_AT_EPOCH": 94618, "BSTAR": 0.00028681115, "MEAN_MOTION_DOT": 3.16e-06, "MEAN_MOTION_DDOT": 0}, "tle": {"line1": "1 31093U 99025BGP 25354.79729040  .00000316  00000+0  28681-3 0  9995", "line2": "2 31093  98.5945 193.0786 0208358 201.2976 157.9411 13.80639482946185"}}, "geometry": {"type": "Point", "coordinates": [-10.385867481346164, -72.10663827637188]}}, {"type": "Feature", "properties": {"norad_id": 31094, "name": "FENGYUN 1C DEB", "group": "fengyun-1c-debris", "lat": -63.848268947189446, "lon": -114.29179531204274, "alt_km": 874.6622587143002, "timestamp": "2025-12-25T16:53:14.944013+00:00", "meta": {"OBJECT_NAME": "FENGYUN 1C DEB", "OBJECT_ID": "1999-025BGQ", "EPOCH": "2025-12-24T20:38:32.011872", "MEAN_MOTION": 14.02101816, "ECCENTRICITY": 0.01065371, "INCLINATION": 98.8564, "RA_OF_ASC_NODE": 226.3748, "ARG_OF_PERICENTER": 13.4799, "MEAN_ANOMALY": 346.9174, "EPHEMERIS_TYPE": 0, "CLASSIFICATION_TYPE": "U", "NORAD_CAT_ID": 31094, "ELEMENT_SET_NO": 999, "REV_AT_EPOCH": 95789, "BSTAR": 0.0016824529, "MEAN_MOTION_DOT": 2.659e-05, "MEAN_MOTION_DDOT": 0}, "tle": {"line1": "1 31094U 99025BGQ 25358.86009273  .00002659  00000+0  16825-2 0  9995", "line2": "2 31094  98.8564 226.3748 0106537  13.4799 346.9174 14.02101816957892"}}, "geometry": {"type": "Point", "coordinates": [-114.29179531204274, -63.848268947189446]}}, {"type": "Feature", "properties": {"norad_id": 31095, "name": "FENGYUN 1C DEB", "group": "fengyun-1c-debris", "lat": -80.64121753790103, "lon": -106.50325368200652, "alt_km": 1326.3386632688753, "timestamp": "2025-12-25T16:53:14.944023+00:00", "meta": {"OBJECT_NAME": "FENGYUN 1C DEB", "OBJECT_ID": "1999-025BGR", "EPOCH": "2025-12-24T02:48:44.654400", "MEAN_MOTION": 13.06670618, "ECCENTRICITY": 0.05001499, "INCLINATION": 98.5625, "RA_OF_ASC_NODE": 138.3042, "ARG_OF_PERICENTER": 164.6493, "MEAN_ANOMALY": 197.044, "EPHEMERIS_TYPE": 0, "CLASSIFICATION_TYPE": "U", "NORAD_CAT_ID": 31095, "ELEMENT_SET_NO": 999, "REV_AT_EPOCH": 89596, "BSTAR": -0.00036805939, "MEAN_MOTION_DOT": -2.53e-06, "MEAN_MOTION_DDOT": 0}, "tle": {"line1": "1 31095U 99025BGR 25358.11718350 -.00000253  00000+0 -36806-3 0  9999", "line2": "2 31095  98.5625 138.3042 0500149 164.6493 197.0440 13.06670618895968"}}, "geometry": {"type": "Point", "coordinates": [-106.50325368200652, -80.64121753790103]}}, {"type": "Feature", "properties": {"norad_id": 31097, "name": "FENGYUN 1C DEB", "group": "fengyun-1c-debris", "lat": -78.54417563146438, "lon": 173.40594725988547, "alt_km": 733.8734019655667, "timestamp": "2025-12-25T16:53:14.944033+00:00", "meta": {"OBJECT_NAME": "FENGYUN 1C DEB", "OBJECT_ID": "1999-025BGT", "EPOCH": "2025-12-25T07:27:02.384928", "MEAN_MOTION": 14.47224883, "ECCENTRICITY": 0.00158826, "INCLINATION": 98.8596, "RA_OF_ASC_NODE": 122.6694, "ARG_OF_PERICENTER": 234.49, "MEAN_ANOMALY": 155.2771, "EPHEMERIS_TYPE": 0, "CLASSIFICATION_TYPE": "U", "NORAD_CAT_ID": 31097, "ELEMENT_SET_NO": 999, "REV_AT_EPOCH": 97220, "BSTAR": 0.002997212, "MEAN_MOTION_DOT": 0.00010937, "MEAN_MOTION_DDOT": 0}, "tle": {"line1": "1 31097U 99025BGT 25359.31044427  .00010937  00000+0  29972-2 0  9994", "line2": "2 31097  98.8596 122.6694 0015882 234.4900 155.2771 14.47224883972204"}}, "geometry": {"type": "Point", "coordinates": [173.40594725988547, -78.54417563146438]}}, {"type": "Feature", "properties": {"norad_id": 31098, "name": "FENGYUN 1C DEB", "group": "fengyun-1c-debris", "lat": -2.3452504429744296, "lon": 118.73643400675095, "alt_km": 731.7620629937346, "timestamp": "2025-12-25T16:53:14.944043+00:00", "meta": {"OBJECT_NAME": "FENGYUN 1C DEB", "OBJECT_ID": "1999-025BGU", "EPOCH": "2025-12-24T19:23:44.058912", "MEAN_MOTION": 14.51799263, "ECCENTRICITY": 0.00154922, "INCLINATION": 98.8702, "RA_OF_ASC_NODE": 117.4251, "ARG_OF_PERICENTER": 217.1525, "MEAN_ANOMALY": 142.8597, "EPHEMERIS_TYPE": 0, "CLASSIFICATION_TYPE": "U", "NORAD_CAT_ID": 31098, "ELEMENT_SET_NO": 999, "REV_AT_EPOCH": 97132, "BSTAR": 0.003391156, "MEAN_MOTION_DOT": 0.00013638, "MEAN_MOTION_DDOT": 0}, "tle": {"line1": "1 31098U 99025BGU 25358.80814883  .00013638  00000+0  33912-2 0  9999", "line2": "2 31098  98.8702 117.4251 0015492 217.1525 142.8597 14.51799263971327"}}, "geometry": {"type": "Point", "coordinates": [118.73643400675095, -2.3452504429744296]}}, {"type": "Feature", "properties": {"norad_id": 31099, "name": "FENGYUN 1C DEB", "group": "fengyun-1c-debris", "lat": 22.575903274692827, "lon": 76.23626359620232, "alt_km": 795.125740459589, "timestamp": "2025-12-25T16:53:14.944053+00:00", "meta": {"OBJECT_NAME": "FENGYUN 1C DEB", "OBJECT_ID": "1999-025BGV", "EPOCH": "2025-12-23T04:19:41.448576", "MEAN_MOTION": 14.27936288, "ECCENTRICITY": 0.00624449, "INCLINATION": 98.938, "RA_OF_ASC_NODE": 249.9035, "ARG_OF_PERICENTER": 250.7334, "MEAN_ANOMALY": 263.0811, "EPHEMERIS_TYPE": 0, "CLASSIFICATION_TYPE": "U", "NORAD_CAT_ID": 31099, "ELEMENT_SET_NO": 999, "REV_AT_EPOCH": 97620, "BSTAR": 0.00026134267, "MEAN_MOTION_DOT": 6.14e-06, "MEAN_MOTION_DDOT": 0}, "tle": {"line1": "1 31099U 99025BGV 25357.18034084  .00000614  00000+0  26134-3 0  9996", "line2": "2 31099  98.9380 249.9035 0062444 250.7334 263.0811 14.27936288976202"}}, "geometry": {"type": "Point", "coordinates": [76.23626359620232, 22.575903274692827]}}, {"type": "Feature", "properties": {"norad_id": 31146, "name": "FENGYUN 1C DEB", "group": "fengyun-1c-debris", "lat": 5.2761139059549285, "lon": -69.9143350908221, "alt_km": 885.0384786754148, "timestamp": "2025-12-25T16:53:14.944063+00:00", "meta": {"OBJECT_NAME": "FENGYUN 1C DEB", "OBJECT_ID": "1999-025BGY", "EPOCH": "2025-12-25T01:43:27.265440", "MEAN_MOTION": 14.27729375, "ECCENTRICITY": 0.02131319, "INCLINATION": 99.0429, "RA_OF_ASC_NODE": 290.2742, "ARG_OF_PERICENTER": 131.3804, "MEAN_ANOMALY": 230.592, "EPHEMERIS_TYPE": 0, "CLASSIFICATION_TYPE": "U", "NORAD_CAT_ID": 31146, "ELEMENT_SET_NO": 999, "REV_AT_EPOCH": 96941, "BSTAR": 0.00033929734, "MEAN_MOTION_DOT": 1.016e-05, "MEAN_MOTION_DDOT": 0}, "tle": {"line1": "1 31146U 99025BGY 25359.07184335  .00001016  00000+0  33930-3 0  9993", "line2": "2 31146  99.0429 290.2742 0213131 131.3804 230.5920 14.27729375969414"}}, "geometry": {"type": "Point", "coordinates": [-69.9143350908221, 5.2761139059549285]}}, {"type": "Feature", "properties": {"norad_id": 31148, "name": "FENGYUN 1C DEB", "group": "fengyun-1c-debris", "lat": -6.861789985971837, "lon": 64.72716606706955, "alt_km": 847.6630728858581, "timestamp": "2025-12-25T16:53:14.944073+00:00", "meta": {"OBJECT_NAME": "FENGYUN 1C DEB", "OBJECT_ID": "1999-025BHA", "EPOCH": "2025-12-24T03:25:37.277184", "MEAN_MOTION": 14.43428265, "ECCENTRICITY": 0.01363719, "INCLINATION": 98.865, "RA_OF_ASC_NODE": 244.1788, "ARG_OF_PERICENTER": 16.9789, "MEAN_ANOMALY": 343.5897, "EPHEMERIS_TYPE": 0, "CLASSIFICATION_TYPE": "U", "NORAD_CAT_ID": 31148, "ELEMENT_SET_NO": 999, "REV_AT_EPOCH": 97695, "BSTAR": 0.0010306136, "MEAN_MOTION_DOT": 3.846e-05, "MEAN_MOTION_DDOT": 0}, "tle": {"line1": "1 31148U 99025BHA 25358.14279256  .00003846  00000+0  10306-2 0  9993", "line2": "2 31148  98.8650 244.1788 0136371  16.9789 343.5897 14.43428265976954"}}, "geometry": {"type": "Point", "coordinates": [64.72716606706955, -6.861789985971837]}}]}